{
    "links": {
        "self": "http://www.neowsapp.com/rest/v1/neo/54016690?api_key=iIulBulltgU6a56xZRHN4H3l9WmuAYTsLGpBGhQ2"
    },
    "id": "54016690",
    "neo_reference_id": "54016690",
    "name": "(2020 HP4)",
    "designation": "2020 HP4",
    "nasa_jpl_url": "http://ssd.jpl.nasa.gov/sbdb.cgi?sstr=54016690",
    "absolute_magnitude_h": 26.548,
    "estimated_diameter": {
        "kilometers": {
            "estimated_diameter_min": 0.0130303169,
            "estimated_diameter_max": 0.0291366743
        },
        "meters": {
            "estimated_diameter_min": 13.030316859,
            "estimated_diameter_max": 29.1366742651
        },
        "miles": {
            "estimated_diameter_min": 0.008096661,
            "estimated_diameter_max": 0.0181046844
        },
        "feet": {
            "estimated_diameter_min": 42.7503847637,
            "estimated_diameter_max": 95.592766396
        }
    },
    "is_potentially_hazardous_asteroid": false,
    "close_approach_data": [
        {
            "close_approach_date": "1918-05-20",
            "close_approach_date_full": "1918-May-20 04:53",
            "epoch_date_close_approach": -1628968020000,
            "relative_velocity": {
                "kilometers_per_second": "18.316595574",
                "kilometers_per_hour": "65939.7440662488",
                "miles_per_hour": "40972.3926393867"
            },
            "miss_distance": {
                "astronomical": "0.4699753766",
                "lunar": "182.8204214974",
                "kilometers": "70307315.291807842",
                "miles": "43686939.9320065396"
            },
            "orbiting_body": "Earth"
        },
        {
            "close_approach_date": "1973-05-16",
            "close_approach_date_full": "1973-May-16 18:03",
            "epoch_date_close_approach": 106423380000,
            "relative_velocity": {
                "kilometers_per_second": "17.6804824319",
                "kilometers_per_hour": "63649.7367549451",
                "miles_per_hour": "39549.4711519824"
            },
            "miss_distance": {
                "astronomical": "0.420665062",
                "lunar": "163.638709118",
                "kilometers": "62930597.25861794",
                "miles": "39103259.894249972"
            },
            "orbiting_body": "Earth"
        },
        {
            "close_approach_date": "2020-04-23",
            "close_approach_date_full": "2020-Apr-23 21:07",
            "epoch_date_close_approach": 1587676020000,
            "relative_velocity": {
                "kilometers_per_second": "17.2688302432",
                "kilometers_per_hour": "62167.7888754098",
                "miles_per_hour": "38628.6463709456"
            },
            "miss_distance": {
                "astronomical": "0.015444048",
                "lunar": "6.007734672",
                "kilometers": "2310396.68497776",
                "miles": "1435613.929742688"
            },
            "orbiting_body": "Earth"
        },
        {
            "close_approach_date": "2020-09-25",
            "close_approach_date_full": "2020-Sep-25 11:04",
            "epoch_date_close_approach": 1601031840000,
            "relative_velocity": {
                "kilometers_per_second": "15.0293671683",
                "kilometers_per_hour": "54105.7218058811",
                "miles_per_hour": "33619.1914187709"
            },
            "miss_distance": {
                "astronomical": "0.4991276972",
                "lunar": "194.1606742108",
                "kilometers": "74668440.359124964",
                "miles": "46396817.3901499432"
            },
            "orbiting_body": "Earth"
        },
        {
            "close_approach_date": "2062-05-22",
            "close_approach_date_full": "2062-May-22 13:05",
            "epoch_date_close_approach": 2915528700000,
            "relative_velocity": {
                "kilometers_per_second": "18.5752795167",
                "kilometers_per_hour": "66871.0062601096",
                "miles_per_hour": "41551.0427508997"
            },
            "miss_distance": {
                "astronomical": "0.4968139131",
                "lunar": "193.2606121959",
                "kilometers": "74322303.186125097",
                "miles": "46181737.7242244586"
            },
            "orbiting_body": "Earth"
        }
    ],
    "orbital_data": {
        "orbit_id": "1",
        "orbit_determination_date": "2020-04-23 05:12:09",
        "first_observation_date": "2020-04-22",
        "last_observation_date": "2020-04-23",
        "data_arc_in_days": 1,
        "observations_used": 81,
        "orbit_uncertainty": "7",
        "minimum_orbit_intersection": ".0152919",
        "jupiter_tisserand_invariant": "4.626",
        "epoch_osculation": "2459000.5",
        "eccentricity": ".2971364905276656",
        "semi_major_axis": "1.378699817153701",
        "inclination": "29.97218983000659",
        "ascending_node_longitude": "33.37081713891158",
        "orbital_period": "591.2933624426366",
        "perihelion_distance": ".9690377919935159",
        "perihelion_argument": "219.2658782154859",
        "aphelion_distance": "1.788361842313886",
        "perihelion_time": "2458997.463349432992",
        "mean_anomaly": "1.848818663559623",
        "mean_motion": ".6088348404805995",
        "equinox": "J2000",
        "orbit_class": {
            "orbit_class_type": "APO",
            "orbit_class_description": "Near-Earth asteroid orbits which cross the Earth’s orbit similar to that of 1862 Apollo",
            "orbit_class_range": "a (semi-major axis) > 1.0 AU; q (perihelion) < 1.017 AU"
        }
    },
    "is_sentry_object": false
}